FENGYUN 1C DEB          
1 31746U 99025CEV 26087.62888167  .00038382  00000+0  46283-2 0  9993
2 31746  98.5894 222.5362 0022344 223.4020 136.5433 14.83508199985944
FENGYUN 1C DEB          
1 31752U 99025CFB 26087.47411905  .00002548  00000+0  11663-2 0  9994
2 31752  98.9628 162.3630 0354156  44.1521 318.7337 13.93906733950633
FENGYUN 1C DEB          
1 31753U 99025CFC 26086.04219931  .00000349  00000+0  16695-3 0  9990
2 31753  98.6177 121.3684 0157970 233.0891 155.9549 14.18784926974984
FENGYUN 1C DEB          
1 31754U 99025CFD 26087.68462842  .00003239  00000+0  96598-3 0  9994
2 31754  99.0512  64.3677 0048151 265.2075  94.3614 14.43125166985177
FENGYUN 1C DEB          
1 31757U 99025CFG 26087.80634561  .00000188  00000+0  10856-3 0  9993
2 31757  98.7598 111.8872 0217827 144.3678 217.2259 14.08036046653744
FENGYUN 1C DEB          
1 31758U 99025CFH 26087.75686496  .00013358  00000+0  21174-2 0  9999
2 31758  98.0591  96.4526 0306973 126.0209 236.9853 14.45392308957307
FENGYUN 1C DEB          
1 31760U 99025CFK 26087.56681155  .00001610  00000+0  62705-3 0  9992
2 31760  99.2512 196.9107 0051324 251.6011 107.9585 14.30587593976452
FENGYUN 1C DEB          
1 31761U 99025CFL 26087.85754479  .00005679  00000+0  13224-2 0  9995
2 31761  98.6268 311.9265 0467027 323.6567  33.3703 14.04892363596003
FENGYUN 1C DEB          
1 31766U 99025CFR 26083.71480668  .00000401  00000+0  26749-3 0  9992
2 31766  98.8229  83.7557 0074430   5.8215 354.3801 14.05339389655181
FENGYUN 1C DEB          
1 31767U 99025CFS 26087.02538629  .00000462  00000+0  31061-3 0  9992
2 31767  98.8084 118.7492 0041893 133.6692 256.9591 14.05019280963049
FENGYUN 1C DEB          
1 31773U 99025CFY 26086.74536706  .00011271  00000+0  16117-2 0  9995
2 31773  98.9543  93.6295 0036268 209.8482 150.0656 14.76385629667220
FENGYUN 1C DEB          
1 31776U 99025CGB 26086.13325757  .00002505  00000+0  11999-2 0  9996
2 31776  99.0623 153.2591 0053905  40.7936 349.3520 14.19207466963613
