[{"OBJECT_NAME":"FENGYUN 1C DEB","OBJECT_ID":"1999-025CEV","EPOCH":"2026-03-28T15:05:35.376288","MEAN_MOTION":14.83508199,"ECCENTRICITY":0.0022344,"INCLINATION":98.5894,"RA_OF_ASC_NODE":222.5362,"ARG_OF_PERICENTER":223.402,"MEAN_ANOMALY":136.5433,"EPHEMERIS_TYPE":0,"CLASSIFICATION_TYPE":"U","NORAD_CAT_ID":31746,"ELEMENT_SET_NO":999,"REV_AT_EPOCH":98594,"BSTAR":0.0046283,"MEAN_MOTION_DOT":0.00038382,"MEAN_MOTION_DDOT":0},{"OBJECT_NAME":"FENGYUN 1C DEB","OBJECT_ID":"1999-025CFB","EPOCH":"2026-03-28T11:22:43.885920","MEAN_MOTION":13.93906733,"ECCENTRICITY":0.03541568,"INCLINATION":98.9628,"RA_OF_ASC_NODE":162.363,"ARG_OF_PERICENTER":44.1521,"MEAN_ANOMALY":318.7337,"EPHEMERIS_TYPE":0,"CLASSIFICATION_TYPE":"U","NORAD_CAT_ID":31752,"ELEMENT_SET_NO":999,"REV_AT_EPOCH":95063,"BSTAR":0.0011663202,"MEAN_MOTION_DOT":2.548e-5,"MEAN_MOTION_DDOT":0},{"OBJECT_NAME":"FENGYUN 1C DEB","OBJECT_ID":"1999-025CFC","EPOCH":"2026-03-27T01:00:46.020384","MEAN_MOTION":14.18784926,"ECCENTRICITY":0.01579706,"INCLINATION":98.6177,"RA_OF_ASC_NODE":121.3684,"ARG_OF_PERICENTER":233.0891,"MEAN_ANOMALY":155.9549,"EPHEMERIS_TYPE":0,"CLASSIFICATION_TYPE":"U","NORAD_CAT_ID":31753,"ELEMENT_SET_NO":999,"REV_AT_EPOCH":97498,"BSTAR":0.0001669454,"MEAN_MOTION_DOT":3.49e-6,"MEAN_MOTION_DDOT":0},{"OBJECT_NAME":"FENGYUN 1C DEB","OBJECT_ID":"1999-025CFD","EPOCH":"2026-03-28T16:25:51.895488","MEAN_MOTION":14.43125166,"ECCENTRICITY":0.00481515,"INCLINATION":99.0512,"RA_OF_ASC_NODE":64.3677,"ARG_OF_PERICENTER":265.2075,"MEAN_ANOMALY":94.3614,"EPHEMERIS_TYPE":0,"CLASSIFICATION_TYPE":"U","NORAD_CAT_ID":31754,"ELEMENT_SET_NO":999,"REV_AT_EPOCH":98517,"BSTAR":0.00096597761,"MEAN_MOTION_DOT":3.239e-5,"MEAN_MOTION_DDOT":0},{"OBJECT_NAME":"FENGYUN 1C DEB","OBJECT_ID":"1999-025CFG","EPOCH":"2026-03-28T19:21:08.260704","MEAN_MOTION":14.08036046,"ECCENTRICITY":0.0217827,"INCLINATION":98.7598,"RA_OF_ASC_NODE":111.8872,"ARG_OF_PERICENTER":144.3678,"MEAN_ANOMALY":217.2259,"EPHEMERIS_TYPE":0,"CLASSIFICATION_TYPE":"U","NORAD_CAT_ID":31757,"ELEMENT_SET_NO":999,"REV_AT_EPOCH":65374,"BSTAR":0.00010855591,"MEAN_MOTION_DOT":1.88e-6,"MEAN_MOTION_DDOT":0},{"OBJECT_NAME":"FENGYUN 1C DEB","OBJECT_ID":"1999-025CFH","EPOCH":"2026-03-28T18:09:53.132544","MEAN_MOTION":14.45392308,"ECCENTRICITY":0.03069733,"INCLINATION":98.0591,"RA_OF_ASC_NODE":96.4526,"ARG_OF_PERICENTER":126.0209,"MEAN_ANOMALY":236.9853,"EPHEMERIS_TYPE":0,"CLASSIFICATION_TYPE":"U","NORAD_CAT_ID":31758,"ELEMENT_SET_NO":999,"REV_AT_EPOCH":95730,"BSTAR":0.0021174197,"MEAN_MOTION_DOT":0.00013358,"MEAN_MOTION_DDOT":0},{"OBJECT_NAME":"FENGYUN 1C DEB","OBJECT_ID":"1999-025CFK","EPOCH":"2026-03-28T13:36:12.517920","MEAN_MOTION":14.30587593,"ECCENTRICITY":0.0051324,"INCLINATION":99.2512,"RA_OF_ASC_NODE":196.9107,"ARG_OF_PERICENTER":251.6011,"MEAN_ANOMALY":107.9585,"EPHEMERIS_TYPE":0,"CLASSIFICATION_TYPE":"U","NORAD_CAT_ID":31760,"ELEMENT_SET_NO":999,"REV_AT_EPOCH":97645,"BSTAR":0.00062705,"MEAN_MOTION_DOT":1.61e-5,"MEAN_MOTION_DDOT":0},{"OBJECT_NAME":"FENGYUN 1C DEB","OBJECT_ID":"1999-025CFL","EPOCH":"2026-03-28T20:34:51.869856","MEAN_MOTION":14.04892363,"ECCENTRICITY":0.04670273,"INCLINATION":98.6268,"RA_OF_ASC_NODE":311.9265,"ARG_OF_PERICENTER":323.6567,"MEAN_ANOMALY":33.3703,"EPHEMERIS_TYPE":0,"CLASSIFICATION_TYPE":"U","NORAD_CAT_ID":31761,"ELEMENT_SET_NO":999,"REV_AT_EPOCH":59600,"BSTAR":0.0013223541,"MEAN_MOTION_DOT":5.679e-5,"MEAN_MOTION_DDOT":0},{"OBJECT_NAME":"FENGYUN 1C DEB","OBJECT_ID":"1999-025CFR","EPOCH":"2026-03-24T17:09:19.297152","MEAN_MOTION":14.05339389,"ECCENTRICITY":0.00744307,"INCLINATION":98.8229,"RA_OF_ASC_NODE":83.7557,"ARG_OF_PERICENTER":5.8215,"MEAN_ANOMALY":354.3801,"EPHEMERIS_TYPE":0,"CLASSIFICATION_TYPE":"U","NORAD_CAT_ID":31766,"ELEMENT_SET_NO":999,"REV_AT_EPOCH":65518,"BSTAR":0.0002674901,"MEAN_MOTION_DOT":4.01e-6,"MEAN_MOTION_DDOT":0},{"OBJECT_NAME":"FENGYUN 1C DEB","OBJECT_ID":"1999-025CFS","EPOCH":"2026-03-28T00:36:33.375456","MEAN_MOTION":14.0501928,"ECCENTRICITY":0.00418933,"INCLINATION":98.8084,"RA_OF_ASC_NODE":118.7492,"ARG_OF_PERICENTER":133.6692,"MEAN_ANOMALY":256.9591,"EPHEMERIS_TYPE":0,"CLASSIFICATION_TYPE":"U","NORAD_CAT_ID":31767,"ELEMENT_SET_NO":999,"REV_AT_EPOCH":96304,"BSTAR":0.0003106076,"MEAN_MOTION_DOT":4.62e-6,"MEAN_MOTION_DDOT":0},{"OBJECT_NAME":"FENGYUN 1C DEB","OBJECT_ID":"1999-025CFY","EPOCH":"2026-03-27T17:53:19.713984","MEAN_MOTION":14.76385629,"ECCENTRICITY":0.00362684,"INCLINATION":98.9543,"RA_OF_ASC_NODE":93.6295,"ARG_OF_PERICENTER":209.8482,"MEAN_ANOMALY":150.0656,"EPHEMERIS_TYPE":0,"CLASSIFICATION_TYPE":"U","NORAD_CAT_ID":31773,"ELEMENT_SET_NO":999,"REV_AT_EPOCH":66722,"BSTAR":0.001611682,"MEAN_MOTION_DOT":0.00011271,"MEAN_MOTION_DDOT":0},{"OBJECT_NAME":"FENGYUN 1C DEB","OBJECT_ID":"1999-025CGB","EPOCH":"2026-03-27T03:11:53.454048","MEAN_MOTION":14.19207466,"ECCENTRICITY":0.0053905,"INCLINATION":99.0623,"RA_OF_ASC_NODE":153.2591,"ARG_OF_PERICENTER":40.7936,"MEAN_ANOMALY":349.352,"EPHEMERIS_TYPE":0,"CLASSIFICATION_TYPE":"U","NORAD_CAT_ID":31776,"ELEMENT_SET_NO":999,"REV_AT_EPOCH":96361,"BSTAR":0.0011999424,"MEAN_MOTION_DOT":2.505e-5,"MEAN_MOTION_DDOT":0}]
